{
  "norad_id": 61001,
  "name": "STARLINK-11274 [DTC]",
  "history": [
    {
      "epoch": "2026-03-28T14:01:58.124064",
      "apogee_km": 360.36674353173294,
      "perigee_km": 359.13101526145147,
      "latitude_deg": 12.484524423080114,
      "longitude_deg": -23.76875103986822,
      "semi_major_axis_km": 6737.885879396592,
      "eccentricity": 9.17e-05,
      "inclination_deg": 53.1601,
      "raan_deg": 188.0164,
      "arg_perigee_deg": 100.1742,
      "mean_anomaly_deg": 259.9379,
      "mean_motion_rev_day": 15.69702267
    }
  ]
}